{
"type": "FeatureCollection",
"features": [{"type": "Feature", "properties": {"highway": "turning_circle"}, "geometry": {"type": "Point", "coordinates": [18.07064,59.3485848]}},
{"type": "Feature", "properties": {"crossing": "marked", "crossing:island": "yes", "highway": "crossing", "tactile_paving": "no"}, "geometry": {"type": "Point", "coordinates": [18.070051,59.3491146]}},
{"type": "Feature", "properties": {"crossing": "marked", "crossing:island": "no", "highway": "crossing", "tactile_paving": "no"}, "geometry": {"type": "Point", "coordinates": [18.0701894,59.3492477]}},
{"type": "Feature", "properties": {"crossing": "unmarked", "highway": "crossing", "tactile_paving": "no"}, "geometry": {"type": "Point", "coordinates": [18.0701544,59.3482358]}},
{"type": "Feature", "properties": {"crossing": "unmarked", "highway": "crossing", "tactile_paving": "no"}, "geometry": {"type": "Point", "coordinates": [18.0703891,59.3482027]}},
{"type": "Feature", "properties": {"crossing": "unmarked", "highway": "crossing", "tactile_paving": "no"}, "geometry": {"type": "Point", "coordinates": [18.0700726,59.3502484]}},
{"type": "Feature", "properties": {"crossing": "marked", "highway": "crossing"}, "geometry": {"type": "Point", "coordinates": [18.0704654,59.3491741]}},
{"type": "Feature", "properties": {"highway": "residential", "lanes": "2", "lit": "yes", "maxspeed": "30", "name": "Teknikringen", "note": "While most of the surface is asphalt, some of the surface is sett", "oneway": "no", "surface": "asphalt"}, "geometry": {"type": "MultiLineString", "coordinates": [[[18.0698361,59.3490464],[18.070051,59.3491146],[18.0701420,59.3491357],[18.0702474,59.3491517]]]}},
{"type": "Feature", "properties": {"highway": "service", "lit": "yes", "oneway": "no", "surface": "asphalt"}, "geometry": {"type": "MultiLineString", "coordinates": [[[18.0713918,59.3492688],[18.0714891,59.3489409],[18.0714245,59.3487813],[18.0716006,59.3483666],[18.0716623,59.3483111],[18.071807,59.3482824],[18.0725351,59.3483072],[18.0726179,59.3487629],[18.0726646,59.349053],[18.0725503,59.3493275],[18.0725385,59.349356]]]}},
{"type": "Feature", "properties": {"highway": "service", "lit": "yes", "surface": "sett"}, "geometry": {"type": "MultiLineString", "coordinates": [[[18.0710573,59.3475469],[18.0711111,59.3475763],[18.0711705,59.3477403],[18.0710163,59.3478191],[18.0709961,59.3478379],[18.0709955,59.3478493],[18.0710099,59.3478563],[18.0710370,59.3478674],[18.0710698,59.3478722],[18.0711777,59.3478831],[18.0714193,59.3479168],[18.071502,59.3478941],[18.0721703,59.3476679],[18.0722804,59.3475877],[18.0725087,59.347524],[18.0727922,59.3474664]]]}},
{"type": "Feature", "properties": {"highway": "service", "lit": "yes", "surface": "sett"}, "geometry": {"type": "MultiLineString", "coordinates": [[[18.0702727,59.3481927],[18.0703891,59.3482027],[18.0706290,59.3482237],[18.0706977,59.348234],[18.0708164,59.3482517],[18.0712181,59.3483119]]]}},
{"type": "Feature", "properties": {"handrail": "yes", "highway": "steps", "incline": "up", "lit": "yes", "ramp": "no", "step_count": "22", "surface": "concrete"}, "geometry": {"type": "MultiLineString", "coordinates": [[[18.0712181,59.3483119],[18.0714607,59.3483471]]]}},
{"type": "Feature", "properties": {"highway": "footway", "lit": "yes", "surface": "asphalt"}, "geometry": {"type": "MultiLineString", "coordinates": [[[18.070308,59.3485996],[18.0703703,59.3487231],[18.0701779,59.3490484],[18.0701483,59.3490712]]]}},
{"type": "Feature", "properties": {"highway": "footway", "lit": "yes", "surface": "asphalt"}, "geometry": {"type": "MultiLineString", "coordinates": [[[18.070308,59.3485996],[18.0705342,59.3485935],[18.07064,59.3485848],[18.0707909,59.348603]]]}},
{"type": "Feature", "properties": {"crossing": "marked", "crossing:island": "yes", "footway": "crossing", "highway": "footway", "lit": "yes", "note": "While most of the surface is asphalt, some of the surface is sett", "surface": "asphalt", "tactile_paving": "no"}, "geometry": {"type": "MultiLineString", "coordinates": [[[18.0699789,59.3491785],[18.070051,59.3491146],[18.0701155,59.3490573]]]}},
{"type": "Feature", "properties": {"footway": "sidewalk", "highway": "footway", "lit": "yes", "surface": "paving_stones"}, "geometry": {"type": "MultiLineString", "coordinates": [[[18.0688189,59.3497583],[18.0691429,59.3494907],[18.0692713,59.3493865],[18.0699337,59.3488493],[18.0699826,59.34878],[18.0700513,59.3486851],[18.070062,59.3486702],[18.0701041,59.3485357],[18.0701319,59.3483265],[18.0701544,59.3482358],[18.0702146,59.3481045],[18.0703943,59.3479071],[18.0704659,59.3478442],[18.0706944,59.3476937],[18.0709014,59.347556],[18.0710567,59.3474532],[18.0712787,59.3472872],[18.0714754,59.3470878],[18.0715939,59.3469549],[18.0717891,59.3467356],[18.0719359,59.3465665],[18.0719387,59.3465464]]]}},
{"type": "Feature", "properties": {"highway": "service", "lit": "yes", "surface": "sett"}, "geometry": {"type": "MultiLineString", "coordinates": [[[18.0709563,59.3496832],[18.0704293,59.349632],[18.0703013,59.3496194],[18.0701192,59.3496017],[18.0700415,59.3495942]]]}},
{"type": "Feature", "properties": {"highway": "footway", "lit": "no", "surface": "asphalt"}, "geometry": {"type": "MultiLineString", "coordinates": [[[18.0704659,59.3478442],[18.0703873,59.347809],[18.0703666,59.3477794],[18.0703788,59.3477429],[18.0705211,59.347665],[18.0706785,59.3476067],[18.0708178,59.3475614],[18.0709014,59.347556]]]}},
{"type": "Feature", "properties": {"highway": "footway", "lit": "yes", "surface": "asphalt"}, "geometry": {"type": "MultiLineString", "coordinates": [[[18.0703943,59.3479071],[18.0702481,59.347904]]]}},
{"type": "Feature", "properties": {"footway": "sidewalk", "highway": "footway", "lit": "yes", "surface": "paving_stones"}, "geometry": {"type": "MultiLineString", "coordinates": [[[18.0718465,59.3470096],[18.0717222,59.3471490],[18.0715747,59.3472645],[18.0711111,59.3475763],[18.0707537,59.3478215],[18.0706205,59.3479099],[18.0704974,59.3480167],[18.0704074,59.34815],[18.0703891,59.3482027],[18.070308,59.3485996]]]}},
{"type": "Feature", "properties": {"highway": "service", "lit": "yes", "oneway": "no", "surface": "asphalt"}, "geometry": {"type": "MultiLineString", "coordinates": [[[18.0702474,59.3491517],[18.070287,59.349095],[18.0705496,59.3486504],[18.0705995,59.3486142],[18.07064,59.3485848]]]}},
{"type": "Feature", "properties": {"handrail": "yes", "highway": "steps", "incline": "up", "lit": "yes", "ramp": "no", "step_count": "6", "surface": "sett"}, "geometry": {"type": "MultiLineString", "coordinates": [[[18.0707786,59.3483245],[18.0708164,59.3482517]]]}},
{"type": "Feature", "properties": {"highway": "footway", "lit": "yes", "surface": "concrete"}, "geometry": {"type": "MultiLineString", "coordinates": [[[18.0714607,59.3483471],[18.0716006,59.3483666]]]}},
{"type": "Feature", "properties": {"highway": "footway", "lit": "no", "surface": "asphalt"}, "geometry": {"type": "MultiLineString", "coordinates": [[[18.0711694,59.3497177],[18.071025,59.350071],[18.0709503,59.3502562]]]}},
{"type": "Feature", "properties": {"highway": "service", "lit": "yes", "surface": "sett"}, "geometry": {"type": "MultiLineString", "coordinates": [[[18.0721703,59.3476679],[18.0721518,59.3477168],[18.0715189,59.3479439],[18.0714547,59.3479972]]]}},
{"type": "Feature", "properties": {"handrail": "yes", "highway": "steps", "incline": "down", "lit": "yes", "ramp": "no", "step_count": "7", "surface": "sett"}, "geometry": {"type": "MultiLineString", "coordinates": [[[18.071502,59.3478941],[18.0716101,59.3478057]]]}},
{"type": "Feature", "properties": {"highway": "unclassified", "lane_markings": "no", "lanes": "2", "lit": "yes", "maxspeed": "30", "name": "Teknikringen", "oneway": "no", "sidewalk:left": "separate", "sidewalk:right": "no", "surface": "asphalt"}, "geometry": {"type": "MultiLineString", "coordinates": [[[18.0702474,59.3491517],[18.0704654,59.3491741],[18.070873,59.3492157],[18.0713918,59.3492688],[18.0723734,59.3493664],[18.0724576,59.3493687],[18.0725385,59.349356]]]}},
{"type": "Feature", "properties": {"highway": "service", "lit": "yes", "surface": "sett"}, "geometry": {"type": "MultiLineString", "coordinates": [[[18.0706977,59.348234],[18.0709219,59.3478707]]]}},
{"type": "Feature", "properties": {"highway": "path", "lit": "yes", "surface": "sett"}, "geometry": {"type": "MultiLineString", "coordinates": [[[18.0712062,59.3479105],[18.0711777,59.3478831]]]}},
{"type": "Feature", "properties": {"highway": "service", "lit": "yes", "surface": "sett"}, "geometry": {"type": "MultiLineString", "coordinates": [[[18.0710099,59.3478563],[18.0709219,59.3478707]]]}},
{"type": "Feature", "properties": {"handrail": "no", "highway": "steps", "incline": "down", "lit": "yes", "ramp": "no", "step_count": "6", "surface": "sett"}, "geometry": {"type": "MultiLineString", "coordinates": [[[18.0709219,59.3478707],[18.0707537,59.3478215]]]}},
{"type": "Feature", "properties": {"handrail": "yes", "highway": "steps", "incline": "down", "lit": "yes", "ramp": "no", "step_count": "14", "surface": "sett", "tactile_paving": "no"}, "geometry": {"type": "MultiLineString", "coordinates": [[[18.0713671,59.3479324],[18.0712062,59.3479105]]]}},
{"type": "Feature", "properties": {"highway": "path", "lit": "yes", "surface": "sett"}, "geometry": {"type": "MultiLineString", "coordinates": [[[18.0714547,59.3479972],[18.0714255,59.3480123],[18.0713725,59.3480160],[18.0713395,59.347998],[18.0713367,59.3479679],[18.0713671,59.3479324]]]}},
{"type": "Feature", "properties": {"highway": "footway", "lit": "yes", "surface": "asphalt"}, "geometry": {"type": "MultiLineString", "coordinates": [[[18.0715446,59.3501434],[18.0716689,59.3498284],[18.0716881,59.3497798]]]}},
{"type": "Feature", "properties": {"handrail": "yes", "highway": "steps", "incline": "down", "lit": "yes", "ramp": "no", "step_count": "22", "surface": "paving_stones"}, "geometry": {"type": "MultiLineString", "coordinates": [[[18.0710197,59.3496999],[18.0710542,59.3496192]]]}},
{"type": "Feature", "properties": {"highway": "footway", "lit": "yes", "surface": "asphalt"}, "geometry": {"type": "MultiLineString", "coordinates": [[[18.0710542,59.3496192],[18.0709853,59.3496119],[18.0709563,59.3496832],[18.0709175,59.349778],[18.0709832,59.349785]]]}},
{"type": "Feature", "properties": {"highway": "footway", "lit": "yes", "surface": "asphalt"}, "geometry": {"type": "MultiLineString", "coordinates": [[[18.0699847,59.3497830],[18.0701842,59.3498041],[18.0702578,59.3498118]]]}},
{"type": "Feature", "properties": {"highway": "footway", "lit": "yes", "surface": "asphalt"}, "geometry": {"type": "MultiLineString", "coordinates": [[[18.0701842,59.3498041],[18.0701465,59.3499226],[18.0701318,59.3500115],[18.0701116,59.3501318],[18.0700726,59.3502484],[18.0700459,59.350328],[18.0700447,59.3503635],[18.0700862,59.3503963],[18.0701599,59.3504388],[18.0702158,59.3504649]]]}},
{"type": "Feature", "properties": {"highway": "footway", "lit": "yes", "surface": "asphalt"}, "geometry": {"type": "MultiLineString", "coordinates": [[[18.0701842,59.3498041],[18.0702028,59.3497619]]]}},
{"type": "Feature", "properties": {"handrail": "no", "highway": "steps", "incline": "up", "lit": "yes", "ramp": "no", "step_count": "7", "surface": "paving_stones"}, "geometry": {"type": "MultiLineString", "coordinates": [[[18.0702028,59.3497619],[18.0702833,59.3496628]]]}},
{"type": "Feature", "properties": {"highway": "footway", "lit": "yes", "surface": "asphalt"}, "geometry": {"type": "MultiLineString", "coordinates": [[[18.0702833,59.3496628],[18.0703013,59.3496194]]]}},
{"type": "Feature", "properties": {"footway": "sidewalk", "highway": "footway", "lit": "yes", "surface": "paving_stones"}, "geometry": {"type": "MultiLineString", "coordinates": [[[18.0701192,59.3496017],[18.0701760,59.3494536],[18.07027,59.349256],[18.0702847,59.3492204],[18.0703048,59.3492122],[18.0703317,59.3492108],[18.0711457,59.3492854],[18.0716272,59.3493379],[18.0716832,59.3493606],[18.0720389,59.3493919],[18.0720845,59.3493810],[18.0723418,59.3494047],[18.0724052,59.3494081],[18.0724491,59.3494065],[18.0725823,59.3493902],[18.0726747,59.3493911],[18.0727510,59.349398],[18.0732443,59.3494475]]]}},
{"type": "Feature", "properties": {"crossing": "marked", "footway": "crossing", "highway": "footway", "lit": "yes", "surface": "paving_stones"}, "geometry": {"type": "MultiLineString", "coordinates": [[[18.07027,59.349256],[18.0701894,59.3492477],[18.0700757,59.3492359]]]}},
{"type": "Feature", "properties": {"footway": "sidewalk", "highway": "footway", "lit": "yes", "surface": "asphalt"}, "geometry": {"type": "MultiLineString", "coordinates": [[[18.070308,59.3485996],[18.0702362,59.3487413],[18.07018,59.3488302],[18.070121,59.3489028],[18.0700485,59.3489753],[18.0700485,59.349004],[18.0700646,59.3490341],[18.0701155,59.3490573],[18.0701483,59.3490712]]]}},
{"type": "Feature", "properties": {"highway": "path", "lit": "yes", "surface": "asphalt"}, "geometry": {"type": "MultiLineString", "coordinates": [[[18.0713653,59.3501343],[18.0713319,59.3502057]]]}},
{"type": "Feature", "properties": {"highway": "footway", "lit": "yes", "surface": "asphalt"}, "geometry": {"type": "MultiLineString", "coordinates": [[[18.0713319,59.3502057],[18.0714134,59.3502151],[18.0715027,59.3502255],[18.0716061,59.350238]]]}},
{"type": "Feature", "properties": {"highway": "path", "lit": "yes", "surface": "asphalt"}, "geometry": {"type": "MultiLineString", "coordinates": [[[18.0715027,59.3502255],[18.0715446,59.3501434]]]}},
{"type": "Feature", "properties": {"highway": "footway", "lit": "yes", "surface": "asphalt"}, "geometry": {"type": "MultiLineString", "coordinates": [[[18.0713319,59.3502057],[18.0712683,59.3501979],[18.0712589,59.3502151]]]}},
{"type": "Feature", "properties": {"handrail": "yes", "highway": "steps", "incline": "down", "lit": "yes", "ramp": "no", "step_count": "8", "surface": "concrete"}, "geometry": {"type": "MultiLineString", "coordinates": [[[18.0714134,59.3502151],[18.0714389,59.3502438]]]}},
{"type": "Feature", "properties": {"highway": "footway", "lit": "yes", "surface": "asphalt"}, "geometry": {"type": "MultiLineString", "coordinates": [[[18.0714389,59.3502438],[18.0714488,59.3502560],[18.0714591,59.3502679]]]}},
{"type": "Feature", "properties": {"highway": "footway", "lit": "yes", "surface": "asphalt"}, "geometry": {"type": "MultiLineString", "coordinates": [[[18.0714488,59.3502560],[18.0715936,59.3502714]]]}},
{"type": "Feature", "properties": {"handrail": "yes", "highway": "steps", "incline": "down", "lit": "yes", "ramp": "no", "step_count": "8", "surface": "paving_stones"}, "geometry": {"type": "MultiLineString", "coordinates": [[[18.0714591,59.3502679],[18.0715629,59.3502795]]]}},
{"type": "Feature", "properties": {"highway": "path", "lit": "yes", "surface": "asphalt"}, "geometry": {"type": "MultiLineString", "coordinates": [[[18.0715629,59.3502795],[18.0715057,59.3502953]]]}},
{"type": "Feature", "properties": {"handrail": "yes", "highway": "steps", "incline": "down", "lit": "no", "ramp": "no", "step_count": "8", "surface": "asphalt"}, "geometry": {"type": "MultiLineString", "coordinates": [[[18.0714748,59.3503343],[18.0714416,59.3503717]]]}},
{"type": "Feature", "properties": {"highway": "footway", "lit": "no", "surface": "asphalt"}, "geometry": {"type": "MultiLineString", "coordinates": [[[18.0714416,59.3503717],[18.0714161,59.3503872]]]}},
{"type": "Feature", "properties": {"handrail": "yes", "highway": "steps", "incline": "down", "lit": "yes", "ramp": "no", "step_count": "7", "surface": "asphalt"}, "geometry": {"type": "MultiLineString", "coordinates": [[[18.0714161,59.3503872],[18.071388,59.3504546]]]}},
{"type": "Feature", "properties": {"highway": "footway", "lit": "no", "surface": "asphalt"}, "geometry": {"type": "MultiLineString", "coordinates": [[[18.0714929,59.3503077],[18.0714748,59.3503343]]]}},
{"type": "Feature", "properties": {"handrail": "yes", "highway": "steps", "incline": "down", "lit": "no", "ramp": "no", "step_count": "3", "surface": "paving_stones"}, "geometry": {"type": "MultiLineString", "coordinates": [[[18.0715057,59.3502953],[18.0714929,59.3503077]]]}},
{"type": "Feature", "properties": {"handrail": "yes", "highway": "steps", "incline": "down", "lit": "yes", "ramp": "no", "step_count": "22", "surface": "paving_stones"}, "geometry": {"type": "MultiLineString", "coordinates": [[[18.0710197,59.3496999],[18.0709832,59.349785]]]}},
{"type": "Feature", "properties": {"highway": "footway", "lit": "yes", "surface": "asphalt"}, "geometry": {"type": "MultiLineString", "coordinates": [[[18.0714616,59.3497586],[18.0711694,59.3497177],[18.0710197,59.3496999]]]}},
{"type": "Feature", "properties": {"highway": "footway", "lit": "yes", "surface": "gravel"}, "geometry": {"type": "MultiLineString", "coordinates": [[[18.0716881,59.3497798],[18.0714616,59.3497586]]]}},
{"type": "Feature", "properties": {"area": "yes", "highway": "pedestrian", "lit": "yes", "surface": "gravel"}, "geometry": {"type": "MultiPolygon", "coordinates": [[[[18.0714435,59.3498021],[18.0716689,59.3498284],[18.0716957,59.3498316],[18.0717422,59.3497328],[18.071714,59.3497298],[18.0714847,59.3497013],[18.0714616,59.3497586],[18.0714435,59.3498021]]]]}},
{"type": "Feature", "properties": {"highway": "footway", "lit": "yes", "surface": "sett"}, "geometry": {"type": "MultiLineString", "coordinates": [[[18.0707909,59.348603],[18.0708427,59.3484987],[18.0707786,59.3483245]]]}},
{"type": "Feature", "properties": {"highway": "footway", "lit": "no", "surface": "asphalt"}, "geometry": {"type": "MultiLineString", "coordinates": [[[18.0718852,59.3499956],[18.0718182,59.3500449],[18.0717002,59.3501118],[18.0716519,59.3501379],[18.0715446,59.3501434],[18.071389,59.3501366],[18.0713653,59.3501343],[18.0712925,59.350127],[18.0711905,59.3501024],[18.071094,59.3500805],[18.071025,59.350071]]]}},
{"type": "Feature", "properties": {"highway": "service", "oneway": "no", "surface": "asphalt"}, "geometry": {"type": "MultiLineString", "coordinates": [[[18.0709208,59.3490734],[18.0708926,59.3491572],[18.0708859,59.349177],[18.070873,59.3492157]]]}},
{"type": "Feature", "properties": {"crossing": "marked", "crossing:island": "no", "highway": "crossing", "tactile_paving": "no"}, "geometry": {"type": "Point", "coordinates": [18.0689080,59.3497889]}},
{"type": "Feature", "properties": {"highway": "unclassified", "lane_markings": "no", "lit": "yes", "maxspeed": "30", "name": "Malvinas väg", "old_name": "Osquldas väg", "surface": "asphalt", "width": "6"}, "geometry": {"type": "MultiLineString", "coordinates": [[[18.0682108,59.3503512],[18.0681351,59.3503137],[18.0678572,59.3501764],[18.0677891,59.3501021],[18.0675126,59.3499621],[18.0673912,59.3498902]]]}},
{"type": "Feature", "properties": {"highway": "service", "source": "Yahoo", "surface": "asphalt"}, "geometry": {"type": "MultiLineString", "coordinates": [[[18.0699333,59.3476627],[18.0696256,59.3475003],[18.0694543,59.3475794],[18.0693083,59.3476437],[18.0691676,59.3477318],[18.069003,59.3478335],[18.0688922,59.3479455],[18.0688448,59.3480281],[18.0692150,59.3481545]]]}},
{"type": "Feature", "properties": {"highway": "service", "lit": "yes", "name": "Malvinas väg", "old_name": "Osquldas väg", "surface": "asphalt"}, "geometry": {"type": "MultiLineString", "coordinates": [[[18.0677891,59.3501021],[18.068146,59.3498326]]]}},
{"type": "Feature", "properties": {"highway": "footway", "lit": "yes", "surface": "asphalt"}, "geometry": {"type": "MultiLineString", "coordinates": [[[18.0681822,59.3492134],[18.0683404,59.3492783],[18.0684973,59.3493221]]]}},
{"type": "Feature", "properties": {"highway": "footway", "lit": "yes", "surface": "fine_gravel"}, "geometry": {"type": "MultiLineString", "coordinates": [[[18.0686037,59.3487023],[18.0685564,59.3487806],[18.0683222,59.3489565],[18.0683597,59.3491023],[18.0681822,59.3492134]]]}},
{"type": "Feature", "properties": {"highway": "footway", "lit": "yes", "surface": "asphalt"}, "geometry": {"type": "MultiLineString", "coordinates": [[[18.0684973,59.3493221],[18.0686112,59.3493536],[18.0689764,59.349439],[18.0691429,59.3494907]]]}},
{"type": "Feature", "properties": {"highway": "footway", "lit": "yes", "surface": "asphalt"}, "geometry": {"type": "MultiLineString", "coordinates": [[[18.0700312,59.3493394],[18.0699766,59.3493378],[18.0698553,59.3493332],[18.0697182,59.3493579],[18.0696549,59.3493735],[18.0695774,59.3494007],[18.069477,59.3494536],[18.0693649,59.3495148]]]}},
{"type": "Feature", "properties": {"highway": "footway", "lit": "yes", "surface": "asphalt"}, "geometry": {"type": "MultiLineString", "coordinates": [[[18.0689958,59.3498198],[18.0689080,59.3497889],[18.0688189,59.3497583],[18.0686607,59.3497172]]]}},
{"type": "Feature", "properties": {"highway": "service", "lit": "yes", "source": "Yahoo", "surface": "asphalt"}, "geometry": {"type": "MultiLineString", "coordinates": [[[18.0692150,59.3481545],[18.0693412,59.3481443],[18.0695393,59.3481539],[18.0701544,59.3482358],[18.0702498,59.3482522]]]}},
{"type": "Feature", "properties": {"highway": "service", "source": "Yahoo", "surface": "asphalt"}, "geometry": {"type": "MultiLineString", "coordinates": [[[18.0692150,59.3481545],[18.0689094,59.3483109],[18.0685234,59.3483375],[18.0681601,59.3484063],[18.0679671,59.3484958],[18.0677065,59.3485546],[18.0675337,59.3486733],[18.0676539,59.3488152],[18.0677725,59.3488465],[18.0680011,59.3487991],[18.0681528,59.3487893],[18.0686037,59.3487023],[18.068779,59.3485917],[18.0689118,59.3484587],[18.0689094,59.3483109]]]}},
{"type": "Feature", "properties": {"highway": "service", "lit": "yes", "source": "Yahoo", "surface": "sett"}, "geometry": {"type": "MultiLineString", "coordinates": [[[18.0692150,59.3481545],[18.0700513,59.3486851],[18.070134,59.3487376]]]}},
{"type": "Feature", "properties": {"highway": "service", "lit": "yes", "surface": "asphalt"}, "geometry": {"type": "MultiLineString", "coordinates": [[[18.0702481,59.347904],[18.0695393,59.3481539]]]}},
{"type": "Feature", "properties": {"highway": "footway", "lit": "yes", "surface": "gravel"}, "geometry": {"type": "MultiLineString", "coordinates": [[[18.0678792,59.3494853],[18.0680151,59.3495191],[18.0683267,59.3496147],[18.0683598,59.3496242],[18.0683191,59.3498156],[18.068146,59.3498326]]]}},
{"type": "Feature", "properties": {"highway": "footway", "lit": "no", "surface": "asphalt"}, "geometry": {"type": "MultiLineString", "coordinates": [[[18.0693649,59.3495148],[18.0699228,59.3495876],[18.0700415,59.3495942]]]}},
{"type": "Feature", "properties": {"handrail": "yes", "highway": "steps", "incline": "down", "lit": "yes", "ramp": "no", "step_count": "23", "surface": "sett"}, "geometry": {"type": "MultiLineString", "coordinates": [[[18.0683598,59.3496242],[18.0686607,59.3497172]]]}},
{"type": "Feature", "properties": {"highway": "unclassified", "lane_markings": "no", "lit": "yes", "maxspeed": "30", "name": "Drottning Kristinas Väg", "surface": "asphalt"}, "geometry": {"type": "MultiLineString", "coordinates": [[[18.0717678,59.3469367],[18.0717209,59.3469824],[18.0715826,59.3471174],[18.0713859,59.3473065],[18.0710573,59.3475469],[18.0705977,59.3478385],[18.0703979,59.3480074],[18.0702727,59.3481927],[18.0702498,59.3482522],[18.0701906,59.3486216],[18.070134,59.3487376],[18.0700373,59.3488653],[18.0698361,59.3490464],[18.0689080,59.3497889],[18.0682108,59.3503512]]]}},
{"type": "Feature", "properties": {"highway": "footway", "lit": "yes", "surface": "paving_stones"}, "geometry": {"type": "MultiLineString", "coordinates": [[[18.0683541,59.349543],[18.0686112,59.3493536]]]}},
{"type": "Feature", "properties": {"highway": "footway", "lit": "yes", "surface": "paving_stones"}, "geometry": {"type": "MultiLineString", "coordinates": [[[18.0690375,59.3505532],[18.0689745,59.3505071],[18.0689652,59.3504775],[18.0689261,59.3504499],[18.0688209,59.3503970],[18.0687791,59.350381],[18.0686996,59.3503503],[18.0685434,59.3503014],[18.0684453,59.3502705]]]}},
{"type": "Feature", "properties": {"highway": "footway", "lit": "yes", "surface": "fine_gravel"}, "geometry": {"type": "MultiLineString", "coordinates": [[[18.0681822,59.3492134],[18.0681337,59.3493288]]]}},
{"type": "Feature", "properties": {"highway": "footway", "lit": "yes", "surface": "paving_stones"}, "geometry": {"type": "MultiLineString", "coordinates": [[[18.0698407,59.3498316],[18.0697992,59.3498432],[18.0697617,59.349872],[18.0697013,59.3499328],[18.0696610,59.3499862],[18.0696276,59.350032],[18.0696075,59.3500832]]]}},
{"type": "Feature", "properties": {"handrail": "yes", "highway": "steps", "incline": "down", "lit": "yes", "ramp": "yes", "ramp:stroller": "yes", "step_count": "9", "surface": "paving_stones"}, "geometry": {"type": "MultiLineString", "coordinates": [[[18.0696075,59.3500832],[18.0697804,59.3500914],[18.0699112,59.3500984]]]}},
{"type": "Feature", "properties": {"highway": "footway", "lit": "yes", "surface": "asphalt"}, "geometry": {"type": "MultiLineString", "coordinates": [[[18.0698553,59.3493332],[18.0700848,59.3492145]]]}},
{"type": "Feature", "properties": {"highway": "service", "lit": "yes", "surface": "asphalt"}, "geometry": {"type": "MultiLineString", "coordinates": [[[18.0701383,59.3502534],[18.0700726,59.3502484],[18.0698837,59.3502340]]]}},
{"type": "Feature", "properties": {"highway": "footway", "lit": "no", "surface": "paving_stones"}, "geometry": {"type": "MultiLineString", "coordinates": [[[18.0689352,59.3498693],[18.0690609,59.3498979],[18.0690936,59.3499054]]]}},
{"type": "Feature", "properties": {"highway": "service", "lit": "yes", "service": "parking_aisle", "surface": "asphalt"}, "geometry": {"type": "MultiLineString", "coordinates": [[[18.0690609,59.3498979],[18.0685434,59.3503014]]]}},
{"type": "Feature", "properties": {"highway": "path", "incline": "up", "informal": "yes", "lit": "no", "surface": "compacted", "trail_visibility": "excellent"}, "geometry": {"type": "MultiLineString", "coordinates": [[[18.0686112,59.3493536],[18.0684126,59.3493855],[18.0681931,59.3494806],[18.0680151,59.3495191]]]}},
{"type": "Feature", "properties": {"highway": "service"}, "geometry": {"type": "MultiLineString", "coordinates": [[[18.0648967,59.3490111],[18.0654483,59.3487881],[18.0656155,59.3487236],[18.0657763,59.348651],[18.066087,59.3484875],[18.0665176,59.3482373],[18.0664774,59.3481649],[18.0662557,59.3480237],[18.0662728,59.3479228],[18.0670484,59.3476571],[18.0677782,59.3474757],[18.0682637,59.3473252],[18.0685427,59.34722],[18.0689247,59.3470527],[18.0691810,59.3469269],[18.0694627,59.3468042],[18.0697860,59.3466491],[18.070655,59.3462527]]]}},
{"type": "Feature", "properties": {"footway": "sidewalk", "highway": "footway", "lit": "yes", "name": "Valhallavägen", "surface": "concrete:plates", "wikidata": "Q7911587", "wikipedia": "sv:Valhallavägen, Stockholm"}, "geometry": {"type": "MultiLineString", "coordinates": [[[18.0714512,59.3458506],[18.0714112,59.3458562],[18.0710227,59.3459491],[18.0702058,59.3461444],[18.0700146,59.3462004],[18.0675247,59.3470908],[18.0670738,59.3472489],[18.0669991,59.3472783],[18.0668839,59.3473235],[18.0667291,59.3473845],[18.0658466,59.3477761],[18.0657911,59.3477540],[18.0657003,59.3477088],[18.0656185,59.3477118],[18.0654845,59.3477174]]]}},
{"type": "Feature", "properties": {"highway": "unclassified", "lane_markings": "no", "lit": "yes", "maxspeed": "30", "name": "Brinellvägen", "surface": "asphalt"}, "geometry": {"type": "MultiLineString", "coordinates": [[[18.0649169,59.3532284],[18.0650445,59.3531845],[18.065675,59.3530886],[18.0659665,59.3530069],[18.0663289,59.3529094],[18.0665999,59.3528356],[18.0666272,59.3528282],[18.0666825,59.352809],[18.0671352,59.3526518],[18.0674833,59.3524988],[18.0676901,59.3524078],[18.0677561,59.3523758],[18.0678925,59.3523044],[18.0680627,59.3522064],[18.0691061,59.3515985],[18.0692205,59.3515303],[18.0696276,59.3512324],[18.0697276,59.3511254],[18.0697855,59.351032],[18.0698231,59.3509405],[18.0698349,59.3508837],[18.0698485,59.3508192],[18.0698449,59.3504248],[18.0698837,59.3502340],[18.0699112,59.3500984],[18.0699661,59.3498448],[18.0699847,59.3497830],[18.0700415,59.3495942],[18.0701894,59.3492477],[18.0702474,59.3491517]]]}},
{"type": "Feature", "properties": {"highway": "unclassified", "lane_markings": "no", "lit": "yes", "maxheight": "default", "maxspeed": "30", "name": "Drottning Kristinas Väg", "source:width": "ARCore", "surface": "asphalt", "width": "8.8"}, "geometry": {"type": "MultiLineString", "coordinates": [[[18.0636692,59.3526042],[18.0637883,59.3525725],[18.0641142,59.3524879],[18.0646028,59.3523433],[18.0648312,59.3522673],[18.0648637,59.3522533],[18.0653546,59.3520785],[18.0658837,59.3519076],[18.0661877,59.3517791],[18.0664163,59.3516659],[18.0666118,59.3515435],[18.0669841,59.3512974],[18.0671127,59.3512012],[18.067365,59.3510104],[18.0674124,59.3509747],[18.0677187,59.350744],[18.0678145,59.3506731],[18.0680934,59.3504466],[18.0682108,59.3503512]]]}},
{"type": "Feature", "properties": {"handrail": "yes", "highway": "steps", "incline": "down", "lit": "yes", "ramp": "yes", "ramp:stroller": "yes", "step_count": "15", "surface": "paving_stones"}, "geometry": {"type": "MultiLineString", "coordinates": [[[18.0694092,59.35089],[18.0695285,59.3509235],[18.0696431,59.3509238]]]}},
{"type": "Feature", "properties": {"highway": "service", "lit": "yes", "surface": "asphalt"}, "geometry": {"type": "MultiLineString", "coordinates": [[[18.0692205,59.3515303],[18.0696379,59.3515387]]]}},
{"type": "Feature", "properties": {"highway": "footway", "lit": "yes", "surface": "compacted"}, "geometry": {"type": "MultiLineString", "coordinates": [[[18.0690837,59.3507708],[18.0691341,59.3506007]]]}},
{"type": "Feature", "properties": {"foot": "yes", "highway": "path", "lit": "yes", "name": "Elljusspår", "source": "survey", "surface": "dirt"}, "geometry": {"type": "MultiLineString", "coordinates": [[[18.0751577,59.3504417],[18.074862,59.3505701],[18.0744334,59.3508237],[18.0741552,59.3509253],[18.0739853,59.3510485],[18.0736602,59.3512003],[18.0734237,59.3513649],[18.0728744,59.3515306],[18.0727489,59.3516221],[18.0721849,59.3517627],[18.0715175,59.3520892],[18.0713919,59.3521119],[18.0709978,59.352078],[18.0706259,59.3521883],[18.0703943,59.3522072],[18.0702762,59.3521858],[18.0697763,59.3522311],[18.0695472,59.3522939],[18.0692068,59.3523669],[18.0688539,59.3524266],[18.0688414,59.3525219],[18.0686776,59.3525592],[18.0682658,59.3527017],[18.0681109,59.3527822],[18.0676322,59.3529671],[18.0675217,59.3530382],[18.0675237,59.3530995],[18.0677771,59.3532966],[18.0682164,59.3535774],[18.0680990,59.3538730],[18.0678469,59.3539624],[18.0675699,59.3539645],[18.0671081,59.3539114],[18.0669157,59.3539409],[18.0666925,59.3539467],[18.0661999,59.3539964],[18.0660575,59.3541234],[18.0659459,59.3542057],[18.0659267,59.3542684],[18.0655803,59.3544431],[18.0652878,59.3545607],[18.0650147,59.3547176],[18.0644605,59.3549079],[18.0640642,59.3550845],[18.0638795,59.3551532],[18.063898,59.3551901],[18.0640754,59.3552203],[18.0644615,59.3552574],[18.0647807,59.3552242],[18.0653403,59.3552494],[18.0656398,59.3552805],[18.0664496,59.3552484],[18.0667825,59.3551760],[18.0673559,59.3551018],[18.0676080,59.3550415],[18.0677144,59.3549672],[18.068077,59.3549079],[18.0681872,59.3549048],[18.0683586,59.3548556],[18.0685932,59.3547131],[18.0686858,59.3546277],[18.069204,59.3544038],[18.0694719,59.3542652],[18.0697157,59.3541771],[18.0700008,59.354067]]]}},
{"type": "Feature", "properties": {"footway": "sidewalk", "highway": "footway", "lit": "yes", "surface": "asphalt"}, "geometry": {"type": "MultiLineString", "coordinates": [[[18.0637391,59.3527211],[18.0638065,59.3527518],[18.0639,59.3527617],[18.0639897,59.3527456],[18.0640613,59.3527116],[18.0641312,59.3526406],[18.0641592,59.3525962],[18.0642203,59.3525329],[18.0642903,59.3524952],[18.0646496,59.3523762],[18.0648943,59.3523025],[18.0654129,59.3521131],[18.0658593,59.3519651],[18.0661904,59.3518334],[18.0664911,59.351692],[18.0668006,59.3514938],[18.0671779,59.3512234],[18.067436,59.3510335],[18.0677838,59.3507785],[18.0678972,59.3507016],[18.0681615,59.3504937],[18.0684453,59.3502705],[18.0689352,59.3498693],[18.0689958,59.3498198],[18.0693649,59.3495148],[18.0694506,59.3494449],[18.0697913,59.3491666],[18.0698258,59.3491518],[18.0698735,59.3491485],[18.0699319,59.3491632],[18.0699789,59.3491785],[18.0700848,59.3492145],[18.0700757,59.3492359],[18.0700312,59.3493394],[18.0699228,59.3495876],[18.0698796,59.3497141],[18.0698407,59.3498316],[18.0697804,59.3500914],[18.069755,59.3502007],[18.0697361,59.3503204],[18.0697255,59.3505248],[18.0697577,59.3507505],[18.0697617,59.3508305],[18.0697541,59.3509332]]]}},
{"type": "Feature", "properties": {"highway": "footway", "lit": "yes", "surface": "paving_stones"}, "geometry": {"type": "MultiLineString", "coordinates": [[[18.0681718,59.3509396],[18.0681031,59.3508823]]]}},
{"type": "Feature", "properties": {"highway": "footway", "lit": "yes", "surface": "asphalt"}, "geometry": {"type": "MultiLineString", "coordinates": [[[18.0696431,59.3509238],[18.0697541,59.3509332],[18.0698231,59.3509405]]]}},
{"type": "Feature", "properties": {"handrail": "no", "highway": "steps", "incline": "up", "lit": "yes", "ramp": "no", "step_count": "19", "surface": "concrete"}, "geometry": {"type": "MultiLineString", "coordinates": [[[18.0682635,59.3510451],[18.06832,59.3509941],[18.0681718,59.3509396]]]}},
{"type": "Feature", "properties": {"highway": "footway", "lit": "yes", "surface": "unpaved", "surface:note": "Mixed material"}, "geometry": {"type": "MultiLineString", "coordinates": [[[18.0679849,59.3511963],[18.0680941,59.3511664],[18.0682635,59.3510451]]]}},
{"type": "Feature", "properties": {"highway": "footway", "lit": "yes", "surface": "asphalt"}, "geometry": {"type": "MultiLineString", "coordinates": [[[18.0646496,59.3523762],[18.0646028,59.3523433],[18.0645343,59.3522891],[18.0647959,59.3522033],[18.0651661,59.3520818],[18.0652942,59.3520367],[18.065845,59.3518427],[18.0661214,59.3517333],[18.0663397,59.3516189],[18.0665172,59.351506],[18.0666588,59.3514159],[18.0671277,59.3510796],[18.0673155,59.3509429],[18.0676329,59.3507119],[18.0677231,59.3506418],[18.0680937,59.3503468],[18.0681351,59.3503137],[18.0683078,59.3501788],[18.0688189,59.3497583]]]}},
{"type": "Feature", "properties": {"handrail": "yes", "highway": "steps", "incline": "up", "lit": "yes", "ramp": "no", "step_count": "5", "surface": "paving_stones"}, "geometry": {"type": "MultiLineString", "coordinates": [[[18.0691341,59.3506007],[18.0690375,59.3505532]]]}},
{"type": "Feature", "properties": {"highway": "footway", "lit": "yes", "surface": "paving_stones"}, "geometry": {"type": "MultiLineString", "coordinates": [[[18.0681615,59.3504937],[18.0684968,59.3505922],[18.0687791,59.350381]]]}},
{"type": "Feature", "properties": {"highway": "footway", "lit": "yes", "surface": "grass"}, "geometry": {"type": "MultiLineString", "coordinates": [[[18.0679601,59.3507232],[18.0683194,59.3508462],[18.0685556,59.3508113],[18.0690837,59.3507708],[18.0692451,59.3508317],[18.0694092,59.35089]]]}},
{"type": "Feature", "properties": {"highway": "footway", "lit": "yes", "surface": "asphalt"}, "geometry": {"type": "MultiLineString", "coordinates": [[[18.0698349,59.3508837],[18.069958,59.3508957]]]}},
{"type": "Feature", "properties": {"highway": "footway", "lit": "yes", "surface": "asphalt"}, "geometry": {"type": "MultiLineString", "coordinates": [[[18.0697835,59.3512491],[18.0698826,59.3512284]]]}},
{"type": "Feature", "properties": {"footway": "sidewalk", "highway": "footway", "lit": "yes", "surface": "asphalt"}, "geometry": {"type": "MultiLineString", "coordinates": [[[18.0697541,59.3509332],[18.0697249,59.3510087],[18.0696699,59.3510929],[18.0695786,59.3512078],[18.0694969,59.3512645],[18.0693521,59.351352],[18.069184,59.3514596],[18.0690731,59.3515304],[18.0689232,59.3516241],[18.0688371,59.3516780],[18.0684348,59.3519229],[18.0680405,59.3521546],[18.0678204,59.3522765],[18.0676776,59.3523558],[18.0675837,59.352408],[18.0674155,59.3524835],[18.0671794,59.3525866],[18.066973,59.352666],[18.0666838,59.3527681]]]}},
{"type": "Feature", "properties": {"highway": "footway", "lit": "yes", "surface": "paving_stones"}, "geometry": {"type": "MultiLineString", "coordinates": [[[18.069184,59.3514596],[18.0690557,59.3514122],[18.0687982,59.3515522],[18.0687776,59.3515432]]]}},
{"type": "Feature", "properties": {"handrail": "yes", "highway": "steps", "incline": "up", "lit": "yes", "ramp": "no", "step_count": "11", "surface": "asphalt"}, "geometry": {"type": "MultiLineString", "coordinates": [[[18.0689232,59.3516241],[18.0687982,59.3515522]]]}},
{"type": "Feature", "properties": {"highway": "service", "lit": "yes", "surface": "asphalt"}, "geometry": {"type": "MultiLineString", "coordinates": [[[18.0709794,59.3509321],[18.0704995,59.3508852],[18.0703356,59.3508687],[18.0698485,59.3508192]]]}},
{"type": "Feature", "properties": {"highway": "footway", "lit": "yes", "surface": "asphalt"}, "geometry": {"type": "MultiLineString", "coordinates": [[[18.0714474,59.3505742],[18.0714325,59.3506158],[18.0713848,59.3507460],[18.0713778,59.3507667],[18.071339,59.3508801]]]}},
{"type": "Feature", "properties": {"handrail": "yes", "highway": "steps", "incline": "up", "lit": "yes", "ramp": "yes", "ramp:bicycle": "yes", "step_count": "20", "surface": "paving_stones"}, "geometry": {"type": "MultiLineString", "coordinates": [[[18.0704156,59.3511108],[18.070486,59.3509198]]]}},
{"type": "Feature", "properties": {"highway": "footway", "lit": "yes", "surface": "asphalt"}, "geometry": {"type": "MultiLineString", "coordinates": [[[18.070486,59.3509198],[18.0704995,59.3508852]]]}},
{"type": "Feature", "properties": {"highway": "footway", "lit": "yes", "surface": "asphalt"}, "geometry": {"type": "MultiLineString", "coordinates": [[[18.0703967,59.351315],[18.0704487,59.3511684],[18.0704156,59.3511108]]]}},
{"type": "Feature", "properties": {"highway": "footway", "lit": "yes", "surface": "paving_stones"}, "geometry": {"type": "MultiLineString", "coordinates": [[[18.0710627,59.3509794],[18.0709794,59.3509321]]]}},
{"type": "Feature", "properties": {"handrail": "yes", "highway": "steps", "incline": "down", "lit": "yes", "ramp": "no", "step_count": "26", "surface": "paving_stones"}, "geometry": {"type": "MultiLineString", "coordinates": [[[18.0712942,59.3510041],[18.0710627,59.3509794]]]}},
{"type": "Feature", "properties": {"cycleway:both": "no", "highway": "unclassified", "lane_markings": "no", "lit": "yes", "maxspeed": "30", "name": "Teknikringen", "oneway": "no", "surface": "asphalt"}, "geometry": {"type": "MultiLineString", "coordinates": [[[18.0734468,59.3502557],[18.0732651,59.3506825],[18.0730933,59.350662],[18.0728701,59.3506462],[18.0725367,59.3506383],[18.0722699,59.3506318],[18.0721266,59.3506268],[18.0717727,59.3505879],[18.0715552,59.3505646],[18.0714854,59.3505708],[18.0714474,59.3505742],[18.0713544,59.3505809],[18.0712841,59.350575],[18.0709731,59.3505427],[18.070387,59.3504816],[18.0703472,59.3504778],[18.0702158,59.3504649],[18.0701817,59.3504614],[18.0698449,59.3504248]]]}},
{"type": "Feature", "properties": {"highway": "footway", "lit": "yes", "snowplowing": "yes", "surface": "asphalt"}, "geometry": {"type": "MultiLineString", "coordinates": [[[18.0713778,59.3507667],[18.0715412,59.3507818]]]}},
{"type": "Feature", "properties": {"highway": "footway", "layer": "-1", "lit": "yes", "snowplowing": "yes", "surface": "asphalt", "tunnel": "yes"}, "geometry": {"type": "MultiLineString", "coordinates": [[[18.0715412,59.3507818],[18.0716058,59.3507878]]]}},
{"type": "Feature", "properties": {"highway": "footway", "lit": "yes", "surface": "asphalt"}, "geometry": {"type": "MultiLineString", "coordinates": [[[18.071339,59.3508801],[18.0712942,59.3510041],[18.0712749,59.3510564]]]}},
{"type": "Feature", "properties": {"highway": "footway", "lit": "yes", "surface": "compacted"}, "geometry": {"type": "MultiLineString", "coordinates": [[[18.0711116,59.3508269],[18.0710011,59.3508705],[18.0709794,59.3509321]]]}},
{"type": "Feature", "properties": {"highway": "footway", "lit": "yes", "surface": "compacted"}, "geometry": {"type": "MultiLineString", "coordinates": [[[18.0713848,59.3507460],[18.0713308,59.3507405]]]}},
{"type": "Feature", "properties": {"handrail": "no", "highway": "steps", "incline": "up", "lit": "yes", "ramp": "no", "step_count": "7", "surface": "gravel", "wheelchair": "no"}, "geometry": {"type": "MultiLineString", "coordinates": [[[18.0711116,59.3508269],[18.0712085,59.3507888]]]}},
{"type": "Feature", "properties": {"highway": "footway", "lit": "yes", "surface": "compacted"}, "geometry": {"type": "MultiLineString", "coordinates": [[[18.0712085,59.3507888],[18.0713308,59.3507405]]]}},
{"type": "Feature", "properties": {"highway": "footway", "lit": "yes", "surface": "asphalt"}, "geometry": {"type": "MultiLineString", "coordinates": [[[18.0713115,59.3504474],[18.0713382,59.3504500],[18.071388,59.3504546],[18.0715252,59.3504681]]]}},
{"type": "Feature", "properties": {"highway": "footway", "lit": "yes", "surface": "asphalt"}, "geometry": {"type": "MultiLineString", "coordinates": [[[18.0715252,59.3504681],[18.0714854,59.3505708]]]}},
{"type": "Feature", "properties": {"highway": "footway", "lit": "no", "surface": "asphalt"}, "geometry": {"type": "MultiLineString", "coordinates": [[[18.0713382,59.3504500],[18.0712841,59.350575]]]}},
{"type": "Feature", "properties": {"highway": "footway", "lit": "yes", "surface": "asphalt"}, "geometry": {"type": "MultiLineString", "coordinates": [[[18.0715252,59.3504681],[18.071531,59.3504524],[18.0715985,59.3504602],[18.0718098,59.3504813],[18.0717849,59.3505531],[18.0717727,59.3505879]]]}},
{"type": "Feature", "properties": {"highway": "footway", "lit": "yes", "surface": "asphalt"}, "geometry": {"type": "MultiLineString", "coordinates": [[[18.0703356,59.3508687],[18.0703673,59.3507952]]]}},
{"type": "Feature", "properties": {"highway": "footway", "lit": "yes", "surface": "asphalt"}, "geometry": {"type": "MultiLineString", "coordinates": [[[18.0709731,59.3505427],[18.0709145,59.350679]]]}},
{"type": "Feature", "properties": {"highway": "service", "lit": "yes", "surface": "asphalt"}, "geometry": {"type": "MultiLineString", "coordinates": [[[18.0696276,59.3512324],[18.0697835,59.3512491],[18.0703967,59.351315],[18.0707491,59.3513528],[18.0709998,59.3514414],[18.0713738,59.3514656],[18.0715392,59.3514762],[18.0718052,59.3514520]]]}},
{"type": "Feature", "properties": {"highway": "footway", "lit": "yes", "surface": "asphalt"}, "geometry": {"type": "MultiLineString", "coordinates": [[[18.0713738,59.3514656],[18.0713112,59.3513875]]]}},
{"type": "Feature", "properties": {"handrail": "yes", "highway": "steps", "incline": "up", "lit": "no", "ramp": "no", "step_count": "5", "surface": "concrete"}, "geometry": {"type": "MultiLineString", "coordinates": [[[18.0713112,59.3513875],[18.0712200,59.3512773]]]}},
{"type": "Feature", "properties": {"handrail": "yes", "highway": "steps", "incline": "up", "lit": "yes", "ramp": "no", "step_count": "12", "surface": "concrete"}, "geometry": {"type": "MultiLineString", "coordinates": [[[18.0712200,59.3512773],[18.0712557,59.3511895]]]}},
{"type": "Feature", "properties": {"highway": "path", "lit": "yes", "name": "Elljusspår", "source": "survey", "surface": "fine_gravel"}, "geometry": {"type": "MultiLineString", "coordinates": [[[18.0703538,59.3538293],[18.0704828,59.3538361],[18.0707213,59.3538305],[18.0709849,59.3538037],[18.071195,59.353781],[18.0716693,59.3537382],[18.0719115,59.3537286],[18.0722146,59.3536414],[18.0728825,59.3535028],[18.0732371,59.3535149],[18.0736371,59.3536295],[18.0740409,59.3536516],[18.0744567,59.3536928],[18.0746951,59.3536736],[18.0749375,59.3536304],[18.0753572,59.3536123],[18.0755089,59.3535712],[18.0757276,59.3535742],[18.0759285,59.3535471],[18.0761394,59.3534839],[18.0763088,59.3533252],[18.076496,59.3532668],[18.0766694,59.3531574],[18.0767658,59.3530760],[18.0769964,59.3529857],[18.0772053,59.352813],[18.0773805,59.3526965],[18.0777127,59.3525722],[18.0779849,59.3526015],[18.0782189,59.3526454],[18.0786695,59.3525801],[18.0790735,59.3524408],[18.0795316,59.3523603],[18.0799552,59.3521734],[18.0801892,59.3520892],[18.0806054,59.3520215],[18.0809083,59.3519035],[18.0811989,59.3518419],[18.0816102,59.3516687],[18.0817531,59.3515758],[18.082221,59.3513988],[18.0823811,59.3512957],[18.0824131,59.3511551],[18.08229,59.3510446],[18.0819649,59.3508338],[18.0815733,59.3506618],[18.0814205,59.3505612],[18.081162,59.3504948],[18.0807876,59.3504483],[18.0806866,59.3504219],[18.0804501,59.3502323],[18.0803419,59.3501822],[18.0800242,59.3501081],[18.0799035,59.3499876],[18.0798813,59.3499033],[18.07985,59.3497385],[18.0796802,59.3495199],[18.0796594,59.3494664],[18.0796916,59.3493874],[18.0796252,59.3493408],[18.079273,59.3492003],[18.0789331,59.3492052],[18.0783839,59.3491713],[18.0780958,59.3491864],[18.0776006,59.3492719],[18.0773224,59.3493622],[18.0771105,59.3494025],[18.0763619,59.3496334],[18.0760467,59.3498356],[18.075761,59.3499675],[18.0755841,59.3500058]]]}}]}